COMMENT,ORIGINATOR,NORAD_CAT_ID,OBJECT_NAME,OBJECT_TYPE,CLASSIFICATION_TYPE,INTLDES,EPOCH,EPOCH_MICROSECONDS,MEAN_MOTION,ECCENTRICITY,INCLINATION,RA_OF_ASC_NODE,ARG_OF_PERICENTER,MEAN_ANOMALY,EPHEMERIS_TYPE,ELEMENT_SET_NO,REV_AT_EPOCH,BSTAR,MEAN_MOTION_DOT,MEAN_MOTION_DDOT,FILE,TLE_LINE0,TLE_LINE1,TLE_LINE2,OBJECT_ID,OBJECT_NUMBER,SEMIMAJOR_AXIS,PERIOD,APOGEE,PERIGEE,DECAYED
"GENERATED VIA SPACETRACK.ORG API","18 SPCS","48883","SPACEBEE-100","PAYLOAD","U","21059E","2022-03-30 20:51:05","228928","15.14014117","0.0008873","97.5419","220.0051","22.4029","337.7589","0","999","4203","0.00065843","0.00011913","0","3380787","0 SPACEBEE-100","1 48883U 21059E   22089.86881052  .00011913  00000-0  65843-3 0  9991","2 48883  97.5419 220.0051 0008873  22.4029 337.7589 15.14014117 42039","2021-059E","48883","6902.110","95.111","530.099","517.851","0"
"GENERATED VIA SPACETRACK.ORG API","18 SPCS","48883","SPACEBEE-100","PAYLOAD","U","21059E","2022-03-31 07:57:17","113248","15.1402884","0.0008826","97.5419","220.4633","20.5611","339.5974","0","999","4210","0.00082048","0.00014873","0","3381849","0 SPACEBEE-100","1 48883U 21059E   22090.33144807  .00014873  00000-0  82048-3 0  9999","2 48883  97.5419 220.4633 0008826  20.5611 339.5974 15.14028840 42107","2021-059E","48883","6902.065","95.110","530.022","517.839","0"
"GENERATED VIA SPACETRACK.ORG API","18 SPCS","48883","SPACEBEE-100","PAYLOAD","U","21059E","2022-03-31 20:38:38","866848","15.14044635","0.0008799","97.542","220.987","18.3202","341.8345","0","999","4218","0.00092372","0.00016765","0","3382152","0 SPACEBEE-100","1 48883U 21059E   22090.86017207  .00016765  00000-0  92372-3 0  9993","2 48883  97.5420 220.9870 0008799  18.3202 341.8345 15.14044635 42183","2021-059E","48883","6902.017","95.109","529.956","517.809","0"
"GENERATED VIA SPACETRACK.ORG API","18 SPCS","48883","SPACEBEE-100","PAYLOAD","U","21059E","2022-03-31 20:38:38","866848","15.14044635","0.0008799","97.542","220.987","18.3202","341.8345","0","999","4218","0.00092372","0.00016765","0","3382347","0 SPACEBEE-100","1 48883U 21059E   22090.86017207  .00016765  00000-0  92372-3 0  9993","2 48883  97.5420 220.9870 0008799  18.3202 341.8345 15.14044635 42183","2021-059E","48883","6902.017","95.109","529.956","517.809","0"
"GENERATED VIA SPACETRACK.ORG API","18 SPCS","48883","SPACEBEE-100","PAYLOAD","U","21059E","2022-04-01 14:05:30","465888","15.14066119","0.0008797","97.5424","221.7069","15.5296","344.6204","0","999","4229","0.00091293","0.00016578","0","3383353","0 SPACEBEE-100","1 48883U 21059E   22091.58715817  .00016578  00000-0  91293-3 0  9998","2 48883  97.5424 221.7069 0008797  15.5296 344.6204 15.14066119 42294","2021-059E","48883","6901.952","95.108","529.889","517.746","0"
"GENERATED VIA SPACETRACK.ORG API","18 SPCS","48883","SPACEBEE-100","PAYLOAD","U","21059E","2022-04-01 20:26:10","760352","15.14077285","0.000886","97.5426","221.9688","14.3576","345.7905","0","999","4233","0.00098417","0.00017885","0","3383778","0 SPACEBEE-100","1 48883U 21059E   22091.85151343  .00017885  00000-0  98417-3 0  9993","2 48883  97.5426 221.9688 0008860  14.3576 345.7905 15.14077285 42335","2021-059E","48883","6901.918","95.107","529.898","517.668","0"
"GENERATED VIA SPACETRACK.ORG API","18 SPCS","48883","SPACEBEE-100","PAYLOAD","U","21059E","2022-04-02 05:57:10","979136","15.1408864","0.0008775","97.5428","222.3618","13.14","347.0058","0","999","4239","0.00089096","0.00016186","0","3384182","0 SPACEBEE-100","1 48883U 21059E   22092.24804374  .00016186  00000-0  89096-3 0  9992","2 48883  97.5428 222.3618 0008775  13.1400 347.0058 15.14088640 42390","2021-059E","48883","6901.884","95.107","529.805","517.692","0"
"GENERATED VIA SPACETRACK.ORG API","18 SPCS","48883","SPACEBEE-100","PAYLOAD","U","21059E","2022-04-02 21:48:50","643936","15.1411083","0.0008734","97.543","223.0166","11.1397","349.0026","0","999","4249","0.0008511","0.00015467","0","3385473","0 SPACEBEE-100","1 48883U 21059E   22092.90891949  .00015467  00000-0  85110-3 0  9993","2 48883  97.5430 223.0166 0008734  11.1397 349.0026 15.14110830 42492","2021-059E","48883","6901.816","95.105","529.709","517.653","0"
"GENERATED VIA SPACETRACK.ORG API","18 SPCS","48883","SPACEBEE-100","PAYLOAD","U","21059E","2022-04-03 07:19:50","38464","15.14125445","0.00087","97.5431","223.4093","10.0861","350.0544","0","999","4255","0.00090114","0.00016389","0","3386238","0 SPACEBEE-100","1 48883U 21059E   22093.30544026  .00016389  00000-0  90114-3 0  9993","2 48883  97.5431 223.4093 0008700  10.0861 350.0544 15.14125445 42555","2021-059E","48883","6901.772","95.104","529.641","517.632","0"
"GENERATED VIA SPACETRACK.ORG API","18 SPCS","48883","SPACEBEE-100","PAYLOAD","U","21059E","2022-04-03 21:36:18","741024","15.14138909","0.0008667","97.5433","223.9986","8.2232","351.914","0","999","4264","0.00072942","0.00013253","0","3386965","0 SPACEBEE-100","1 48883U 21059E   22093.90021691  .00013253  00000-0  72942-3 0  9993","2 48883  97.5433 223.9986 0008667   8.2232 351.9140 15.14138909 42647","2021-059E","48883","6901.731","95.104","529.578","517.614","0"
"GENERATED VIA SPACETRACK.ORG API","18 SPCS","48883","SPACEBEE-100","PAYLOAD","U","21059E","2022-04-04 08:42:27","266976","15.14155365","0.0008665","97.5435","224.4569","6.8722","353.2627","0","999","4271","0.00084337","0.00015345","0","3387751","0 SPACEBEE-100","1 48883U 21059E   22094.36281559  .00015345  00000-0  84337-3 0  9990","2 48883  97.5435 224.4569 0008665   6.8722 353.2627 15.14155365 42716","2021-059E","48883","6901.681","95.103","529.526","517.566","0"
"GENERATED VIA SPACETRACK.ORG API","18 SPCS","48883","SPACEBEE-100","PAYLOAD","U","21059E","2022-04-04 08:42:27","266976","15.14155365","0.0008665","97.5435","224.4569","6.8722","353.2627","0","999","4271","0.00084337","0.00015345","0","3387897","0 SPACEBEE-100","1 48883U 21059E   22094.36281559  .00015345  00000-0  84337-3 0  9990","2 48883  97.5435 224.4569 0008665   6.8722 353.2627 15.14155365 42716","2021-059E","48883","6901.681","95.103","529.526","517.566","0"
"GENERATED VIA SPACETRACK.ORG API","18 SPCS","48883","SPACEBEE-100","PAYLOAD","U","21059E","2022-04-04 21:23:45","219840","15.14167457","0.0008624","97.5435","224.9808","5.2968","354.8353","0","999","4279","0.00071618","0.00013021","0","3388506","0 SPACEBEE-100","1 48883U 21059E   22094.89149560  .00013021  00000-0  71618-3 0  9990","2 48883  97.5435 224.9808 0008624   5.2968 354.8353 15.14167457 42793","2021-059E","48883","6901.644","95.102","529.461","517.557","0"
"GENERATED VIA SPACETRACK.ORG API","18 SPCS","48883","SPACEBEE-100","PAYLOAD","U","21059E","2022-04-05 08:29:53","26080","15.14180289","0.0008586","97.5436","225.4391","3.9392","356.1906","0","999","4286","0.00067965","0.00012357","0","3389439","0 SPACEBEE-100","1 48883U 21059E   22095.35408595  .00012357  00000-0  67965-3 0  9999","2 48883  97.5436 225.4391 0008586   3.9392 356.1906 15.14180289 42865","2021-059E","48883","6901.605","95.101","529.396","517.545","0"
"GENERATED VIA SPACETRACK.ORG API","18 SPCS","48883","SPACEBEE-100","PAYLOAD","U","21059E","2022-04-05 14:50:31","620192","15.14187883","0.0008547","97.5435","225.701","3.166","356.9624","0","999","4290","0.00071559","0.00013017","0","3389342","0 SPACEBEE-100","1 48883U 21059E   22095.61842153  .00013017  00000-0  71559-3 0  9998","2 48883  97.5435 225.7010 0008547   3.1660 356.9624 15.14187883 42909","2021-059E","48883","6901.582","95.100","529.346","517.548","0"
"GENERATED VIA SPACETRACK.ORG API","18 SPCS","48883","SPACEBEE-100","PAYLOAD","U","21059E","2022-04-05 19:36:00","542880","15.14191359","0.0008469","97.5437","225.8974","2.1171","358.0095","0","999","4293","0.00065371","0.00011885","0","3389912","0 SPACEBEE-100","1 48883U 21059E   22095.81667295  .00011885  00000-0  65371-3 0  9998","2 48883  97.5437 225.8974 0008469   2.1171 358.0095 15.14191359 42931","2021-059E","48883","6901.572","95.100","529.282","517.592","0"
"GENERATED VIA SPACETRACK.ORG API","18 SPCS","48883","SPACEBEE-100","PAYLOAD","U","21059E","2022-04-06 08:17:17","316384","15.14205055","0.0008433","97.5437","226.4215","0.2589","359.8645","0","999","4301","0.00064725","0.00011771","0","3390907","0 SPACEBEE-100","1 48883U 21059E   22096.34533931  .00011771  00000-0  64725-3 0  9992","2 48883  97.5437 226.4215 0008433   0.2589 359.8645 15.14205055 43018","2021-059E","48883","6901.530","95.099","529.215","517.575","0"
"GENERATED VIA SPACETRACK.ORG API","18 SPCS","48883","SPACEBEE-100","PAYLOAD","U","21059E","2022-04-06 20:58:33","753792","15.14216853","0.0008394","97.5436","226.9454","358.04","2.0797","0","999","4309","0.00063962","0.00011635","0","3391164","0 SPACEBEE-100","1 48883U 21059E   22096.87400178  .00011635  00000-0  63962-3 0  9997","2 48883  97.5436 226.9454 0008394 358.0400   2.0797 15.14216853 43090","2021-059E","48883","6901.494","95.099","529.152","517.566","0"
"GENERATED VIA SPACETRACK.ORG API","18 SPCS","48883","SPACEBEE-100","PAYLOAD","U","21059E","2022-04-06 20:58:33","753792","15.14216853","0.0008394","97.5436","226.9454","358.04","2.0797","0","999","4309","0.00063962","0.00011635","0","3391320","0 SPACEBEE-100","1 48883U 21059E   22096.87400178  .00011635  00000-0  63962-3 0  9997","2 48883  97.5436 226.9454 0008394 358.0400   2.0797 15.14216853 43090","2021-059E","48883","6901.494","95.099","529.152","517.566","0"
"GENERATED VIA SPACETRACK.ORG API","18 SPCS","48883","SPACEBEE-100","PAYLOAD","U","21059E","2022-04-07 14:25:18","213600","15.142347","0.0008348","97.5433","227.666","355.0912","5.0237","0","999","4320","0.00068859","0.00012539","0","3391885","0 SPACEBEE-100","1 48883U 21059E   22097.60090525  .00012539  00000-0  68859-3 0  9994","2 48883  97.5433 227.6660 0008348 355.0912   5.0237 15.14234700 43204","2021-059E","48883","6901.440","95.098","529.066","517.544","0"
